ONEWEB-0278             
1 48996U 21060AF  26006.16433176  .00000184  00000+0  44777-3 0  9994
2 48996  87.9042 261.0321 0001390  84.0375 276.0914 13.16595121218377
ONEWEB-0279             
1 48997U 21060AG  26006.17224649  .00000047  00000+0  88412-4 0  9992
2 48997  87.9045 261.0289 0001579  65.8440 294.2856 13.16594834218303
ONEWEB-0280             
1 48998U 21060AH  26006.18726908 -.00000038  00000+0 -13355-3 0  9994
2 48998  87.9045 261.0322 0001157  74.3057 285.8201 13.16592616218242
ONEWEB-0281             
1 48999U 21060AJ  26006.19283428  .00000000  00000+0 -33824-4 0  9993
2 48999  87.9040 261.0264 0001643  75.3513 284.7800 13.16593802218310
ONEWEB-0282             
1 49000U 21060AK  26006.14690930  .00000097  00000+0  22004-3 0  9994
2 49000  87.9042 261.0454 0001349  73.3236 286.8043 13.16594233218287
ONEWEB-0283             
1 49001U 21060AL  26006.13583144  .00000114  00000+0  26582-3 0  9997
2 49001  87.9039 261.0481 0001508  66.6793 293.4497 13.16594386218291
ONEWEB-0284             
1 49002U 21060AM  26006.12949503  .00000111  00000+0  25679-3 0  9995
2 49002  87.9042 261.0395 0001146  80.8278 279.2983 13.16593773218273
ONEWEB-0285             
1 49075U 21075A   26006.28427314 -.00000160  00000+0 -48149-3 0  9992
2 49075  87.8924  22.8103 0001664  90.7626 269.3693 13.12439766213970
ONEWEB-0286             
1 49076U 21075B   26006.26708184  .00000391  00000+0  10522-2 0  9995
2 49076  87.8919  22.8455 0001938  95.2492 264.8858 13.12442451213327
ONEWEB-0287             
1 49077U 21075C   26006.11886723  .00000049  00000+0  92358-4 0  9995
2 49077  87.9094  38.0847 0002093 105.3499 254.7864 13.17647894212282
ONEWEB-0288             
1 49078U 21075D   26006.31973940  .00000095  00000+0  22743-3 0  9997
2 49078  87.8923  22.7986 0001668  94.9397 265.1922 13.12445278213957
ONEWEB-0289             
1 49079U 21075E   26006.00567929  .00000058  00000+0  11565-3 0  9999
2 49079  87.9084  38.1204 0001382 100.6243 259.5045 13.17649576212841
ONEWEB-0290             
1 49080U 21075F   26006.13069043 -.00000009  00000+0 -56832-4 0  9994
2 49080  87.9095  38.0595 0001156  90.4445 269.6819 13.17649013212270
ONEWEB-0291             
1 49081U 21075G   26006.34331199  .00000041  00000+0  73061-4 0  9999
2 49081  87.9099  38.0247 0001755 108.0503 252.0820 13.17649995212294
ONEWEB-0293             
1 49082U 21075H   26006.06488162  .00000042  00000+0  75425-4 0  9999
2 49082  87.9086  38.0976 0001612  95.4895 264.6420 13.17650165212280
ONEWEB-0294             
1 49083U 21075J   26006.32651822  .00000345  00000+0  92430-3 0  9994
2 49083  87.8925  22.7990 0001359  93.7721 266.3563 13.12445153213344
ONEWEB-0295             
1 49084U 21075K   26006.13995648  .00000035  00000+0  57263-4 0  9993
2 49084  87.9086  38.0871 0001781 104.4308 255.7022 13.17650330212253
