[{"OBJECT_NAME":"ONEWEB-0278","OBJECT_ID":"2021-060AF","EPOCH":"2026-01-06T03:56:38.264064","MEAN_MOTION":13.16595121,"ECCENTRICITY":0.00013905,"INCLINATION":87.9042,"RA_OF_ASC_NODE":261.0321,"ARG_OF_PERICENTER":84.0375,"MEAN_ANOMALY":276.0914,"EPHEMERIS_TYPE":0,"CLASSIFICATION_TYPE":"U","NORAD_CAT_ID":48996,"ELEMENT_SET_NO":999,"REV_AT_EPOCH":21837,"BSTAR":0.00044777496,"MEAN_MOTION_DOT":1.84e-6,"MEAN_MOTION_DDOT":0},{"OBJECT_NAME":"ONEWEB-0279","OBJECT_ID":"2021-060AG","EPOCH":"2026-01-06T04:08:02.096736","MEAN_MOTION":13.16594834,"ECCENTRICITY":0.0001579,"INCLINATION":87.9045,"RA_OF_ASC_NODE":261.0289,"ARG_OF_PERICENTER":65.844,"MEAN_ANOMALY":294.2856,"EPHEMERIS_TYPE":0,"CLASSIFICATION_TYPE":"U","NORAD_CAT_ID":48997,"ELEMENT_SET_NO":999,"REV_AT_EPOCH":21830,"BSTAR":8.8411905e-5,"MEAN_MOTION_DOT":4.7e-7,"MEAN_MOTION_DDOT":0},{"OBJECT_NAME":"ONEWEB-0280","OBJECT_ID":"2021-060AH","EPOCH":"2026-01-06T04:29:40.048512","MEAN_MOTION":13.16592616,"ECCENTRICITY":0.00011577,"INCLINATION":87.9045,"RA_OF_ASC_NODE":261.0322,"ARG_OF_PERICENTER":74.3057,"MEAN_ANOMALY":285.8201,"EPHEMERIS_TYPE":0,"CLASSIFICATION_TYPE":"U","NORAD_CAT_ID":48998,"ELEMENT_SET_NO":999,"REV_AT_EPOCH":21824,"BSTAR":-0.00013355437,"MEAN_MOTION_DOT":-3.8e-7,"MEAN_MOTION_DDOT":0},{"OBJECT_NAME":"ONEWEB-0281","OBJECT_ID":"2021-060AJ","EPOCH":"2026-01-06T04:37:40.881792","MEAN_MOTION":13.16593802,"ECCENTRICITY":0.00016432,"INCLINATION":87.904,"RA_OF_ASC_NODE":261.0264,"ARG_OF_PERICENTER":75.3513,"MEAN_ANOMALY":284.78,"EPHEMERIS_TYPE":0,"CLASSIFICATION_TYPE":"U","NORAD_CAT_ID":48999,"ELEMENT_SET_NO":999,"REV_AT_EPOCH":21831,"BSTAR":-3.3824412e-5,"MEAN_MOTION_DOT":0,"MEAN_MOTION_DDOT":0},{"OBJECT_NAME":"ONEWEB-0282","OBJECT_ID":"2021-060AK","EPOCH":"2026-01-06T03:31:32.963520","MEAN_MOTION":13.16594233,"ECCENTRICITY":0.00013492,"INCLINATION":87.9042,"RA_OF_ASC_NODE":261.0454,"ARG_OF_PERICENTER":73.3236,"MEAN_ANOMALY":286.8043,"EPHEMERIS_TYPE":0,"CLASSIFICATION_TYPE":"U","NORAD_CAT_ID":49000,"ELEMENT_SET_NO":999,"REV_AT_EPOCH":21828,"BSTAR":0.00022003675,"MEAN_MOTION_DOT":9.7e-7,"MEAN_MOTION_DDOT":0},{"OBJECT_NAME":"ONEWEB-0283","OBJECT_ID":"2021-060AL","EPOCH":"2026-01-06T03:15:35.836416","MEAN_MOTION":13.16594386,"ECCENTRICITY":0.00015088,"INCLINATION":87.9039,"RA_OF_ASC_NODE":261.0481,"ARG_OF_PERICENTER":66.6793,"MEAN_ANOMALY":293.4497,"EPHEMERIS_TYPE":0,"CLASSIFICATION_TYPE":"U","NORAD_CAT_ID":49001,"ELEMENT_SET_NO":999,"REV_AT_EPOCH":21829,"BSTAR":0.0002658249,"MEAN_MOTION_DOT":1.14e-6,"MEAN_MOTION_DDOT":0},{"OBJECT_NAME":"ONEWEB-0284","OBJECT_ID":"2021-060AM","EPOCH":"2026-01-06T03:06:28.370592","MEAN_MOTION":13.16593773,"ECCENTRICITY":0.00011466,"INCLINATION":87.9042,"RA_OF_ASC_NODE":261.0395,"ARG_OF_PERICENTER":80.8278,"MEAN_ANOMALY":279.2983,"EPHEMERIS_TYPE":0,"CLASSIFICATION_TYPE":"U","NORAD_CAT_ID":49002,"ELEMENT_SET_NO":999,"REV_AT_EPOCH":21827,"BSTAR":0.00025678598,"MEAN_MOTION_DOT":1.11e-6,"MEAN_MOTION_DDOT":0},{"OBJECT_NAME":"ONEWEB-0285","OBJECT_ID":"2021-075A","EPOCH":"2026-01-06T06:49:21.199296","MEAN_MOTION":13.12439766,"ECCENTRICITY":0.00016641,"INCLINATION":87.8924,"RA_OF_ASC_NODE":22.8103,"ARG_OF_PERICENTER":90.7626,"MEAN_ANOMALY":269.3693,"EPHEMERIS_TYPE":0,"CLASSIFICATION_TYPE":"U","NORAD_CAT_ID":49075,"ELEMENT_SET_NO":999,"REV_AT_EPOCH":21397,"BSTAR":-0.00048148573,"MEAN_MOTION_DOT":-1.6e-6,"MEAN_MOTION_DDOT":0},{"OBJECT_NAME":"ONEWEB-0286","OBJECT_ID":"2021-075B","EPOCH":"2026-01-06T06:24:35.870976","MEAN_MOTION":13.12442451,"ECCENTRICITY":0.00019388,"INCLINATION":87.8919,"RA_OF_ASC_NODE":22.8455,"ARG_OF_PERICENTER":95.2492,"MEAN_ANOMALY":264.8858,"EPHEMERIS_TYPE":0,"CLASSIFICATION_TYPE":"U","NORAD_CAT_ID":49076,"ELEMENT_SET_NO":999,"REV_AT_EPOCH":21332,"BSTAR":0.0010522155,"MEAN_MOTION_DOT":3.91e-6,"MEAN_MOTION_DDOT":0},{"OBJECT_NAME":"ONEWEB-0287","OBJECT_ID":"2021-075C","EPOCH":"2026-01-06T02:51:10.128672","MEAN_MOTION":13.17647894,"ECCENTRICITY":0.0002093,"INCLINATION":87.9094,"RA_OF_ASC_NODE":38.0847,"ARG_OF_PERICENTER":105.3499,"MEAN_ANOMALY":254.7864,"EPHEMERIS_TYPE":0,"CLASSIFICATION_TYPE":"U","NORAD_CAT_ID":49077,"ELEMENT_SET_NO":999,"REV_AT_EPOCH":21228,"BSTAR":9.2357778e-5,"MEAN_MOTION_DOT":4.9e-7,"MEAN_MOTION_DDOT":0},{"OBJECT_NAME":"ONEWEB-0288","OBJECT_ID":"2021-075D","EPOCH":"2026-01-06T07:40:25.484160","MEAN_MOTION":13.12445278,"ECCENTRICITY":0.00016683,"INCLINATION":87.8923,"RA_OF_ASC_NODE":22.7986,"ARG_OF_PERICENTER":94.9397,"MEAN_ANOMALY":265.1922,"EPHEMERIS_TYPE":0,"CLASSIFICATION_TYPE":"U","NORAD_CAT_ID":49078,"ELEMENT_SET_NO":999,"REV_AT_EPOCH":21395,"BSTAR":0.00022742989,"MEAN_MOTION_DOT":9.5e-7,"MEAN_MOTION_DDOT":0},{"OBJECT_NAME":"ONEWEB-0289","OBJECT_ID":"2021-075E","EPOCH":"2026-01-06T00:08:10.690656","MEAN_MOTION":13.17649576,"ECCENTRICITY":0.00013827,"INCLINATION":87.9084,"RA_OF_ASC_NODE":38.1204,"ARG_OF_PERICENTER":100.6243,"MEAN_ANOMALY":259.5045,"EPHEMERIS_TYPE":0,"CLASSIFICATION_TYPE":"U","NORAD_CAT_ID":49079,"ELEMENT_SET_NO":999,"REV_AT_EPOCH":21284,"BSTAR":0.00011564521,"MEAN_MOTION_DOT":5.8e-7,"MEAN_MOTION_DDOT":0},{"OBJECT_NAME":"ONEWEB-0290","OBJECT_ID":"2021-075F","EPOCH":"2026-01-06T03:08:11.653152","MEAN_MOTION":13.17649013,"ECCENTRICITY":0.00011566,"INCLINATION":87.9095,"RA_OF_ASC_NODE":38.0595,"ARG_OF_PERICENTER":90.4445,"MEAN_ANOMALY":269.6819,"EPHEMERIS_TYPE":0,"CLASSIFICATION_TYPE":"U","NORAD_CAT_ID":49080,"ELEMENT_SET_NO":999,"REV_AT_EPOCH":21227,"BSTAR":-5.6832032e-5,"MEAN_MOTION_DOT":-9.0e-8,"MEAN_MOTION_DDOT":0},{"OBJECT_NAME":"ONEWEB-0291","OBJECT_ID":"2021-075G","EPOCH":"2026-01-06T08:14:22.155936","MEAN_MOTION":13.17649995,"ECCENTRICITY":0.0001755,"INCLINATION":87.9099,"RA_OF_ASC_NODE":38.0247,"ARG_OF_PERICENTER":108.0503,"MEAN_ANOMALY":252.082,"EPHEMERIS_TYPE":0,"CLASSIFICATION_TYPE":"U","NORAD_CAT_ID":49081,"ELEMENT_SET_NO":999,"REV_AT_EPOCH":21229,"BSTAR":7.3060555e-5,"MEAN_MOTION_DOT":4.1e-7,"MEAN_MOTION_DDOT":0},{"OBJECT_NAME":"ONEWEB-0293","OBJECT_ID":"2021-075H","EPOCH":"2026-01-06T01:33:25.771968","MEAN_MOTION":13.17650165,"ECCENTRICITY":0.00016125,"INCLINATION":87.9086,"RA_OF_ASC_NODE":38.0976,"ARG_OF_PERICENTER":95.4895,"MEAN_ANOMALY":264.642,"EPHEMERIS_TYPE":0,"CLASSIFICATION_TYPE":"U","NORAD_CAT_ID":49082,"ELEMENT_SET_NO":999,"REV_AT_EPOCH":21228,"BSTAR":7.5425154e-5,"MEAN_MOTION_DOT":4.2e-7,"MEAN_MOTION_DDOT":0},{"OBJECT_NAME":"ONEWEB-0294","OBJECT_ID":"2021-075J","EPOCH":"2026-01-06T07:50:11.174208","MEAN_MOTION":13.12445153,"ECCENTRICITY":0.00013599,"INCLINATION":87.8925,"RA_OF_ASC_NODE":22.799,"ARG_OF_PERICENTER":93.7721,"MEAN_ANOMALY":266.3563,"EPHEMERIS_TYPE":0,"CLASSIFICATION_TYPE":"U","NORAD_CAT_ID":49083,"ELEMENT_SET_NO":999,"REV_AT_EPOCH":21334,"BSTAR":0.00092429713,"MEAN_MOTION_DOT":3.45e-6,"MEAN_MOTION_DDOT":0},{"OBJECT_NAME":"ONEWEB-0295","OBJECT_ID":"2021-075K","EPOCH":"2026-01-06T03:21:32.239872","MEAN_MOTION":13.1765033,"ECCENTRICITY":0.00017818,"INCLINATION":87.9086,"RA_OF_ASC_NODE":38.0871,"ARG_OF_PERICENTER":104.4308,"MEAN_ANOMALY":255.7022,"EPHEMERIS_TYPE":0,"CLASSIFICATION_TYPE":"U","NORAD_CAT_ID":49084,"ELEMENT_SET_NO":999,"REV_AT_EPOCH":21225,"BSTAR":5.726313e-5,"MEAN_MOTION_DOT":3.5e-7,"MEAN_MOTION_DDOT":0}]
